[{"OBJECT_NAME":"STARLINK-5738","OBJECT_ID":"2023-020E","EPOCH":"2026-03-09T04:59:50.874144","MEAN_MOTION":15.02538013,"ECCENTRICITY":0.00011997,"INCLINATION":43.0055,"RA_OF_ASC_NODE":7.534,"ARG_OF_PERICENTER":274.1323,"MEAN_ANOMALY":85.9382,"EPHEMERIS_TYPE":0,"CLASSIFICATION_TYPE":"U","NORAD_CAT_ID":55573,"ELEMENT_SET_NO":999,"REV_AT_EPOCH":16884,"BSTAR":-1.0852628e-5,"MEAN_MOTION_DOT":-3.5e-6,"MEAN_MOTION_DDOT":0},{"OBJECT_NAME":"CZ-2D DEB","OBJECT_ID":"2010-027G","EPOCH":"2026-03-07T07:54:25.300800","MEAN_MOTION":15.18267572,"ECCENTRICITY":0.0071051,"INCLINATION":97.484,"RA_OF_ASC_NODE":105.3106,"ARG_OF_PERICENTER":258.5099,"MEAN_ANOMALY":100.8151,"EPHEMERIS_TYPE":0,"CLASSIFICATION_TYPE":"U","NORAD_CAT_ID":38302,"ELEMENT_SET_NO":999,"REV_AT_EPOCH":83107,"BSTAR":0.0021438,"MEAN_MOTION_DOT":0.00047105,"MEAN_MOTION_DDOT":0}]
